{
  "type": "FeatureCollection",
  "features": [
    {
      "type": "Feature",
      "properties": {
        "norad_id": 43603,
        "name": "BEIDOU-3 M11 (C25)",
        "group": "beidou",
        "lat": -24.901087575277778,
        "lon": 27.064070031793257,
        "alt_km": 21547.236803527096,
        "timestamp": "2025-12-08T17:43:05.196035+00:00",
        "meta_object_name": "BEIDOU-3 M11 (C25)",
        "meta_object_id": "2018-067B",
        "meta_epoch": "2025-12-07T08:23:01.597056",
        "meta_mean_motion": 1.8622716,
        "meta_eccentricity": 0.00055888,
        "meta_inclination": 54.1804,
        "meta_ra_of_asc_node": 187.5103,
        "meta_arg_of_pericenter": 36.6021,
        "meta_mean_anomaly": 323.5051,
        "meta_ephemeris_type": 0,
        "meta_classification_type": "U",
        "meta_norad_cat_id": 43603,
        "meta_element_set_no": 999,
        "meta_rev_at_epoch": 4957,
        "meta_bstar": 0,
        "meta_mean_motion_dot": 6e-07,
        "meta_mean_motion_ddot": 0,
        "tle_line1": "1 43603U 18067B   25341.34932404  .00000060  00000+0  00000+0 0  9996",
        "tle_line2": "2 43603  54.1804 187.5103 0005588  36.6021 323.5051  1.86227160 49576"
      },
      "geometry": {
        "type": "Point",
        "coordinates": [
          27.064070031793257,
          -24.901087575277778
        ]
      }
    },
    {
      "type": "Feature",
      "properties": {
        "norad_id": 43622,
        "name": "BEIDOU-3 M13 (C32)",
        "group": "beidou",
        "lat": -46.37755567933985,
        "lon": -67.00148601987878,
        "alt_km": 21525.12157673297,
        "timestamp": "2025-12-08T17:43:05.196048+00:00",
        "meta_object_name": "BEIDOU-3 M13 (C32)",
        "meta_object_id": "2018-072A",
        "meta_epoch": "2025-12-03T13:07:53.541408",
        "meta_mean_motion": 1.86230692,
        "meta_eccentricity": 0.00056735,
        "meta_inclination": 56.4512,
        "meta_ra_of_asc_node": 69.1249,
        "meta_arg_of_pericenter": 298.6305,
        "meta_mean_anomaly": 61.3164,
        "meta_ephemeris_type": 0,
        "meta_classification_type": "U",
        "meta_norad_cat_id": 43622,
        "meta_element_set_no": 999,
        "meta_rev_at_epoch": 4901,
        "meta_bstar": 0,
        "meta_mean_motion_dot": -5e-07,
        "meta_mean_motion_ddot": 0,
        "tle_line1": "1 43622U 18072A   25337.54714747 -.00000050  00000+0  00000+0 0  9998",
        "tle_line2": "2 43622  56.4512  69.1249 0005673 298.6305  61.3164  1.86230692 49019"
      },
      "geometry": {
        "type": "Point",
        "coordinates": [
          -67.00148601987878,
          -46.37755567933985
        ]
      }
    },
    {
      "type": "Feature",
      "properties": {
        "norad_id": 43623,
        "name": "BEIDOU-3 M14 (C33)",
        "group": "beidou",
        "lat": -24.217461923735303,
        "lon": 51.62229993127918,
        "alt_km": 21522.249509630474,
        "timestamp": "2025-12-08T17:43:05.196059+00:00",
        "meta_object_name": "BEIDOU-3 M14 (C33)",
        "meta_object_id": "2018-072B",
        "meta_epoch": "2025-12-08T05:53:08.473344",
        "meta_mean_motion": 1.8623075,
        "meta_eccentricity": 0.00032562,
        "meta_inclination": 56.4569,
        "meta_ra_of_asc_node": 68.9631,
        "meta_arg_of_pericenter": 332.5752,
        "meta_mean_anomaly": 27.4289,
        "meta_ephemeris_type": 0,
        "meta_classification_type": "U",
        "meta_norad_cat_id": 43623,
        "meta_element_set_no": 999,
        "meta_rev_at_epoch": 4909,
        "meta_bstar": 0,
        "meta_mean_motion_dot": -4.5e-07,
        "meta_mean_motion_ddot": 0,
        "tle_line1": "1 43623U 18072B   25342.24523696 -.00000045  00000+0  00000+0 0  9997",
        "tle_line2": "2 43623  56.4569  68.9631 0003256 332.5752  27.4289  1.86230750 49097"
      },
      "geometry": {
        "type": "Point",
        "coordinates": [
          51.62229993127918,
          -24.217461923735303
        ]
      }
    },
    {
      "type": "Feature",
      "properties": {
        "norad_id": 43647,
        "name": "BEIDOU-3 M16 (C35)",
        "group": "beidou",
        "lat": -34.83795208333347,
        "lon": 156.68772381401737,
        "alt_km": 21550.081832943688,
        "timestamp": "2025-12-08T17:43:05.196071+00:00",
        "meta_object_name": "BEIDOU-3 M16 (C35)",
        "meta_object_id": "2018-078A",
        "meta_epoch": "2025-12-07T20:47:16.965312",
        "meta_mean_motion": 1.86232177,
        "meta_eccentricity": 0.00071256,
        "meta_inclination": 54.2666,
        "meta_ra_of_asc_node": 306.6916,
        "meta_arg_of_pericenter": 18.9999,
        "meta_mean_anomaly": 341.0132,
        "meta_ephemeris_type": 0,
        "meta_classification_type": "U",
        "meta_norad_cat_id": 43647,
        "meta_element_set_no": 999,
        "meta_rev_at_epoch": 4859,
        "meta_bstar": 0,
        "meta_mean_motion_dot": -7.1e-07,
        "meta_mean_motion_ddot": 0,
        "tle_line1": "1 43647U 18078A   25341.86616858 -.00000071  00000+0  00000+0 0  9998",
        "tle_line2": "2 43647  54.2666 306.6916 0007125  18.9999 341.0132  1.86232177 48593"
      },
      "geometry": {
        "type": "Point",
        "coordinates": [
          156.68772381401737,
          -34.83795208333347
        ]
      }
    },
    {
      "type": "Feature",
      "properties": {
        "norad_id": 43648,
        "name": "BEIDOU-3 M15 (C34)",
        "group": "beidou",
        "lat": 32.789462456578626,
        "lon": 99.02749519885715,
        "alt_km": 21529.120894173197,
        "timestamp": "2025-12-08T17:43:05.196082+00:00",
        "meta_object_name": "BEIDOU-3 M15 (C34)",
        "meta_object_id": "2018-078B",
        "meta_epoch": "2025-12-05T07:27:18.667008",
        "meta_mean_motion": 1.86231965,
        "meta_eccentricity": 0.00036856,
        "meta_inclination": 54.2646,
        "meta_ra_of_asc_node": 306.7819,
        "meta_arg_of_pericenter": 17.7509,
        "meta_mean_anomaly": 342.2442,
        "meta_ephemeris_type": 0,
        "meta_classification_type": "U",
        "meta_norad_cat_id": 43648,
        "meta_element_set_no": 999,
        "meta_rev_at_epoch": 4856,
        "meta_bstar": 0,
        "meta_mean_motion_dot": -6.9e-07,
        "meta_mean_motion_ddot": 0,
        "tle_line1": "1 43648U 18078B   25339.31063272 -.00000069  00000+0  00000+0 0  9999",
        "tle_line2": "2 43648  54.2646 306.7819 0003685  17.7509 342.2442  1.86231965 48564"
      },
      "geometry": {
        "type": "Point",
        "coordinates": [
          99.02749519885715,
          32.789462456578626
        ]
      }
    },
    {
      "type": "Feature",
      "properties": {
        "norad_id": 43683,
        "name": "BEIDOU-3 G1 (C59)",
        "group": "beidou",
        "lat": 0.9254515208885445,
        "lon": 123.54775684791693,
        "alt_km": 35780.35016168551,
        "timestamp": "2025-12-08T17:43:05.196094+00:00",
        "meta_object_name": "BEIDOU-3 G1 (C59)",
        "meta_object_id": "2018-085A",
        "meta_epoch": "2025-12-08T07:25:20.267040",
        "meta_mean_motion": 1.00272172,
        "meta_eccentricity": 0.00018048,
        "meta_inclination": 2.5963,
        "meta_ra_of_asc_node": 103.0717,
        "meta_arg_of_pericenter": 63.3495,
        "meta_mean_anomaly": 162.3008,
        "meta_ephemeris_type": 0,
        "meta_classification_type": "U",
        "meta_norad_cat_id": 43683,
        "meta_element_set_no": 999,
        "meta_rev_at_epoch": 2614,
        "meta_bstar": 0,
        "meta_mean_motion_dot": -2.75e-06,
        "meta_mean_motion_ddot": 0,
        "tle_line1": "1 43683U 18085A   25342.30926235 -.00000275  00000+0  00000+0 0  9995",
        "tle_line2": "2 43683   2.5963 103.0717 0001804  63.3495 162.3008  1.00272172 26148"
      },
      "geometry": {
        "type": "Point",
        "coordinates": [
          123.54775684791693,
          0.9254515208885445
        ]
      }
    },
    {
      "type": "Feature",
      "properties": {
        "norad_id": 43706,
        "name": "BEIDOU-3 M17 (C36)",
        "group": "beidou",
        "lat": 25.297779523093254,
        "lon": -151.26416253819002,
        "alt_km": 21523.681433183818,
        "timestamp": "2025-12-08T17:43:05.196106+00:00",
        "meta_object_name": "BEIDOU-3 M17 (C36)",
        "meta_object_id": "2018-093A",
        "meta_epoch": "2025-12-07T14:48:21.855168",
        "meta_mean_motion": 1.86228284,
        "meta_eccentricity": 0.00062805,
        "meta_inclination": 54.1726,
        "meta_ra_of_asc_node": 188.7957,
        "meta_arg_of_pericenter": 306.8929,
        "meta_mean_anomaly": 53.1188,
        "meta_ephemeris_type": 0,
        "meta_classification_type": "U",
        "meta_norad_cat_id": 43706,
        "meta_element_set_no": 999,
        "meta_rev_at_epoch": 4797,
        "meta_bstar": 0,
        "meta_mean_motion_dot": 5.7e-07,
        "meta_mean_motion_ddot": 0,
        "tle_line1": "1 43706U 18093A   25341.61691962  .00000057  00000+0  00000+0 0  9996",
        "tle_line2": "2 43706  54.1726 188.7957 0006280 306.8929  53.1188  1.86228284 47979"
      },
      "geometry": {
        "type": "Point",
        "coordinates": [
          -151.26416253819002,
          25.297779523093254
        ]
      }
    }
  ]
}